[{"OBJECT_NAME":"FLOCK 4Q-2","OBJECT_ID":"2023-174BS","EPOCH":"2026-03-28T21:43:59.155392","MEAN_MOTION":15.4604984,"ECCENTRICITY":0.00071573,"INCLINATION":97.3843,"RA_OF_ASC_NODE":174.6555,"ARG_OF_PERICENTER":80.345,"MEAN_ANOMALY":279.8607,"EPHEMERIS_TYPE":0,"CLASSIFICATION_TYPE":"U","NORAD_CAT_ID":58320,"ELEMENT_SET_NO":999,"REV_AT_EPOCH":13318,"BSTAR":0.00064685612,"MEAN_MOTION_DOT":0.0003163,"MEAN_MOTION_DDOT":0},{"OBJECT_NAME":"FLOCK 4Q-9","OBJECT_ID":"2023-174BU","EPOCH":"2026-03-28T19:10:44.908032","MEAN_MOTION":15.45726651,"ECCENTRICITY":0.00074272,"INCLINATION":97.3881,"RA_OF_ASC_NODE":174.5907,"ARG_OF_PERICENTER":83.2269,"MEAN_ANOMALY":276.9825,"EPHEMERIS_TYPE":0,"CLASSIFICATION_TYPE":"U","NORAD_CAT_ID":58322,"ELEMENT_SET_NO":999,"REV_AT_EPOCH":13315,"BSTAR":0.00065619656,"MEAN_MOTION_DOT":0.00031738,"MEAN_MOTION_DDOT":0},{"OBJECT_NAME":"FLOCK 4Q-4","OBJECT_ID":"2023-174BZ","EPOCH":"2026-03-28T22:27:53.050752","MEAN_MOTION":15.45202377,"ECCENTRICITY":0.0007568,"INCLINATION":97.3839,"RA_OF_ASC_NODE":174.0786,"ARG_OF_PERICENTER":99.912,"MEAN_ANOMALY":260.2984,"EPHEMERIS_TYPE":0,"CLASSIFICATION_TYPE":"U","NORAD_CAT_ID":58327,"ELEMENT_SET_NO":999,"REV_AT_EPOCH":13315,"BSTAR":0.00059867031,"MEAN_MOTION_DOT":0.00028423,"MEAN_MOTION_DDOT":0},{"OBJECT_NAME":"FLOCK 4Q-13","OBJECT_ID":"2023-174CA","EPOCH":"2026-03-28T22:27:24.018624","MEAN_MOTION":15.48057853,"ECCENTRICITY":0.00074752,"INCLINATION":97.4001,"RA_OF_ASC_NODE":176.6235,"ARG_OF_PERICENTER":90.4116,"MEAN_ANOMALY":269.7991,"EPHEMERIS_TYPE":0,"CLASSIFICATION_TYPE":"U","NORAD_CAT_ID":58328,"ELEMENT_SET_NO":999,"REV_AT_EPOCH":13324,"BSTAR":0.00060121902,"MEAN_MOTION_DOT":0.00031503,"MEAN_MOTION_DDOT":0},{"OBJECT_NAME":"FLOCK 4BE-18","OBJECT_ID":"2024-149N","EPOCH":"2026-03-28T19:07:40.389600","MEAN_MOTION":15.391005,"ECCENTRICITY":0.00046559,"INCLINATION":97.3753,"RA_OF_ASC_NODE":170.8433,"ARG_OF_PERICENTER":170.138,"MEAN_ANOMALY":189.9958,"EPHEMERIS_TYPE":0,"CLASSIFICATION_TYPE":"U","NORAD_CAT_ID":60480,"ELEMENT_SET_NO":999,"REV_AT_EPOCH":8993,"BSTAR":0.00061369704,"MEAN_MOTION_DOT":0.00023744,"MEAN_MOTION_DDOT":0},{"OBJECT_NAME":"FLOCK 4BE-7","OBJECT_ID":"2024-149P","EPOCH":"2026-03-28T18:31:32.702592","MEAN_MOTION":15.37026702,"ECCENTRICITY":0.00038337,"INCLINATION":97.3778,"RA_OF_ASC_NODE":170.3532,"ARG_OF_PERICENTER":168.1451,"MEAN_ANOMALY":191.9884,"EPHEMERIS_TYPE":0,"CLASSIFICATION_TYPE":"U","NORAD_CAT_ID":60481,"ELEMENT_SET_NO":999,"REV_AT_EPOCH":8988,"BSTAR":0.00069160795,"MEAN_MOTION_DOT":0.00025028,"MEAN_MOTION_DDOT":0},{"OBJECT_NAME":"FLOCK 4BE-26","OBJECT_ID":"2024-149S","EPOCH":"2026-03-28T17:13:23.867040","MEAN_MOTION":15.48264581,"ECCENTRICITY":0.0006399,"INCLINATION":97.3727,"RA_OF_ASC_NODE":170.9014,"ARG_OF_PERICENTER":193.328,"MEAN_ANOMALY":166.7803,"EPHEMERIS_TYPE":0,"CLASSIFICATION_TYPE":"U","NORAD_CAT_ID":60484,"ELEMENT_SET_NO":999,"REV_AT_EPOCH":8993,"BSTAR":0.0024771,"MEAN_MOTION_DOT":0.00132669,"MEAN_MOTION_DDOT":0},{"OBJECT_NAME":"FLOCK 4BE-36","OBJECT_ID":"2024-149U","EPOCH":"2026-03-28T18:00:07.986816","MEAN_MOTION":15.39998573,"ECCENTRICITY":0.00042759,"INCLINATION":97.3758,"RA_OF_ASC_NODE":171.3703,"ARG_OF_PERICENTER":179.4869,"MEAN_ANOMALY":180.6382,"EPHEMERIS_TYPE":0,"CLASSIFICATION_TYPE":"U","NORAD_CAT_ID":60486,"ELEMENT_SET_NO":999,"REV_AT_EPOCH":8996,"BSTAR":0.00062815253,"MEAN_MOTION_DOT":0.00025034,"MEAN_MOTION_DDOT":0},{"OBJECT_NAME":"FLOCK 4BE-25","OBJECT_ID":"2024-149V","EPOCH":"2026-03-28T18:57:13.453920","MEAN_MOTION":15.36626776,"ECCENTRICITY":0.0003181,"INCLINATION":97.3819,"RA_OF_ASC_NODE":170.5208,"ARG_OF_PERICENTER":159.4577,"MEAN_ANOMALY":200.6796,"EPHEMERIS_TYPE":0,"CLASSIFICATION_TYPE":"U","NORAD_CAT_ID":60487,"ELEMENT_SET_NO":999,"REV_AT_EPOCH":8988,"BSTAR":0.00051917643,"MEAN_MOTION_DOT":0.00018511,"MEAN_MOTION_DDOT":0},{"OBJECT_NAME":"FLOCK 4BE-31","OBJECT_ID":"2024-149W","EPOCH":"2026-03-28T21:41:10.666752","MEAN_MOTION":15.40869766,"ECCENTRICITY":0.00033172,"INCLINATION":97.3817,"RA_OF_ASC_NODE":172.1868,"ARG_OF_PERICENTER":172.6105,"MEAN_ANOMALY":187.5191,"EPHEMERIS_TYPE":0,"CLASSIFICATION_TYPE":"U","NORAD_CAT_ID":60488,"ELEMENT_SET_NO":999,"REV_AT_EPOCH":9000,"BSTAR":0.00066585125,"MEAN_MOTION_DOT":0.00027319,"MEAN_MOTION_DDOT":0},{"OBJECT_NAME":"FLOCK 4BE-20","OBJECT_ID":"2024-149X","EPOCH":"2026-03-28T18:39:20.603520","MEAN_MOTION":15.35853114,"ECCENTRICITY":0.00044077,"INCLINATION":97.3722,"RA_OF_ASC_NODE":169.5907,"ARG_OF_PERICENTER":172.5803,"MEAN_ANOMALY":187.5507,"EPHEMERIS_TYPE":0,"CLASSIFICATION_TYPE":"U","NORAD_CAT_ID":60489,"ELEMENT_SET_NO":999,"REV_AT_EPOCH":8986,"BSTAR":0.00048963734,"MEAN_MOTION_DOT":0.00017024,"MEAN_MOTION_DDOT":0},{"OBJECT_NAME":"FLOCK 4BE-23","OBJECT_ID":"2024-149Y","EPOCH":"2026-03-28T17:57:50.863968","MEAN_MOTION":15.35490748,"ECCENTRICITY":0.00039212,"INCLINATION":97.3802,"RA_OF_ASC_NODE":169.8936,"ARG_OF_PERICENTER":179.6236,"MEAN_ANOMALY":180.5011,"EPHEMERIS_TYPE":0,"CLASSIFICATION_TYPE":"U","NORAD_CAT_ID":60490,"ELEMENT_SET_NO":999,"REV_AT_EPOCH":8984,"BSTAR":0.00046465291,"MEAN_MOTION_DOT":0.00015962,"MEAN_MOTION_DDOT":0},{"OBJECT_NAME":"FLOCK 4BE-15","OBJECT_ID":"2024-149Z","EPOCH":"2026-03-28T18:56:01.686624","MEAN_MOTION":15.4359616,"ECCENTRICITY":0.00048888,"INCLINATION":97.3735,"RA_OF_ASC_NODE":171.1684,"ARG_OF_PERICENTER":238.6768,"MEAN_ANOMALY":121.4002,"EPHEMERIS_TYPE":0,"CLASSIFICATION_TYPE":"U","NORAD_CAT_ID":60491,"ELEMENT_SET_NO":999,"REV_AT_EPOCH":8996,"BSTAR":0.0022493313,"MEAN_MOTION_DOT":0.00102282,"MEAN_MOTION_DDOT":0},{"OBJECT_NAME":"FLOCK 4BE-17","OBJECT_ID":"2024-149AA","EPOCH":"2026-03-28T18:29:18.677184","MEAN_MOTION":15.37316241,"ECCENTRICITY":0.00039135,"INCLINATION":97.3797,"RA_OF_ASC_NODE":170.6459,"ARG_OF_PERICENTER":168.1795,"MEAN_ANOMALY":191.9542,"EPHEMERIS_TYPE":0,"CLASSIFICATION_TYPE":"U","NORAD_CAT_ID":60492,"ELEMENT_SET_NO":999,"REV_AT_EPOCH":8989,"BSTAR":0.00054057381,"MEAN_MOTION_DOT":0.00019715,"MEAN_MOTION_DDOT":0},{"OBJECT_NAME":"FLOCK 4BE-22","OBJECT_ID":"2024-149AC","EPOCH":"2026-03-28T18:08:50.578080","MEAN_MOTION":15.38534276,"ECCENTRICITY":0.00041314,"INCLINATION":97.3753,"RA_OF_ASC_NODE":170.7055,"ARG_OF_PERICENTER":180.7315,"MEAN_ANOMALY":179.3925,"EPHEMERIS_TYPE":0,"CLASSIFICATION_TYPE":"U","NORAD_CAT_ID":60494,"ELEMENT_SET_NO":999,"REV_AT_EPOCH":8992,"BSTAR":0.00058053989,"MEAN_MOTION_DOT":0.00022039,"MEAN_MOTION_DDOT":0},{"OBJECT_NAME":"FLOCK 4BE-34","OBJECT_ID":"2024-149AD","EPOCH":"2026-03-28T18:37:32.504160","MEAN_MOTION":15.38646124,"ECCENTRICITY":0.0004144,"INCLINATION":97.38,"RA_OF_ASC_NODE":171.4911,"ARG_OF_PERICENTER":184.3771,"MEAN_ANOMALY":175.7439,"EPHEMERIS_TYPE":0,"CLASSIFICATION_TYPE":"U","NORAD_CAT_ID":60495,"ELEMENT_SET_NO":999,"REV_AT_EPOCH":8995,"BSTAR":0.00053422401,"MEAN_MOTION_DOT":0.00020344,"MEAN_MOTION_DDOT":0}]
